NORAD_CAT_ID,OBJECT_NAME,OBJECT_TYPE,EPOCH,MEAN_MOTION,ECCENTRICITY,INCLINATION,RA_OF_ASC_NODE,ARG_OF_PERICENTER,MEAN_ANOMALY,BSTAR,MEAN_MOTION_DOT,MEAN_MOTION_DDOT,TLE_LINE0,TLE_LINE1,TLE_LINE2,SEMIMAJOR_AXIS,PERIOD,APOGEE,PERIGEE,DECAYED
53165.0,STARLINK-4090,PAYLOAD,2023-10-01 19:37:12,15.08844826,0.0001189,53.2158,198.9119,79.5669,280.5457,0.00010688,1.414e-05,0.0,0 STARLINK-4090,1 53165U 22083AK  23274.81750431  .00001414  00000-0  10688-3 0  9998,2 53165  53.2158 198.9119 0001189  79.5669 280.5457 15.08844826 67027,6917.866,95.437,540.553,538.908,0.0
53165.0,STARLINK-4090,PAYLOAD,2023-10-02 01:58:44,15.08855464,0.0001243,53.2156,197.7246,80.2668,279.8465,0.00053877,8.301e-05,0.0,0 STARLINK-4090,1 53165U 22083AK  23275.08246008  .00008301  00000-0  53877-3 0  9997,2 53165  53.2156 197.7246 0001243  80.2668 279.8465 15.08855464 67695,6917.833,95.437,540.558,538.838,0.0
53165.0,STARLINK-4090,PAYLOAD,2023-10-02 11:31:03,15.08847259,0.0001347,53.2162,195.9391,95.0611,265.0534,0.00024818,3.665e-05,0.0,0 STARLINK-4090,1 53165U 22083AK  23275.47990246  .00003665  00000-0  24818-3 0  9991,2 53165  53.2162 195.9391 0001347  95.0611 265.0534 15.08847259 67754,6917.858,95.437,540.655,538.791,0.0
53165.0,STARLINK-4090,PAYLOAD,2023-10-03 03:24:55,15.0883882,0.0001529,53.2154,192.9655,94.3279,265.7888,0.00010648,1.407e-05,0.0,0 STARLINK-4090,1 53165U 22083AK  23276.14230758  .00001407  00000-0  10648-3 0  9999,2 53165  53.2154 192.9655 0001529  94.3279 265.7888 15.08838820 67853,6917.884,95.438,540.807,538.691,0.0
53165.0,STARLINK-4090,PAYLOAD,2023-10-03 11:21:51,15.08841596,0.0001625,53.2155,191.4791,94.8316,265.2862,0.00066671,0.00010339,0.0,0 STARLINK-4090,1 53165U 22083AK  23276.47350943  .00010339  00000-0  66671-3 0  9995,2 53165  53.2155 191.4791 0001625  94.8316 265.2862 15.08841596 67270,6917.876,95.437,540.865,538.616,0.0
53165.0,STARLINK-4090,PAYLOAD,2023-10-03 22:29:33,15.08833414,0.0002232,53.2153,189.398,93.4864,266.6383,0.00033834,5.1e-05,0.0,0 STARLINK-4090,1 53165U 22083AK  23276.93719531  .00005100  00000-0  33834-3 0  9993,2 53165  53.2153 189.3980 0002232  93.4864 266.6383 15.08833414 67343,6917.901,95.438,541.31,538.221,0.0
53165.0,STARLINK-4090,PAYLOAD,2023-10-04 03:15:43,15.08840925,0.0002062,53.2145,188.5062,86.6203,273.5025,0.0004747,7.275e-05,0.0,0 STARLINK-4090,1 53165U 22083AK  23277.13591474  .00007275  00000-0  47470-3 0  9996,2 53165  53.2145 188.5062 0002062  86.6203 273.5025 15.08840925 68007,6917.878,95.437,541.169,538.316,0.0
53165.0,STARLINK-4090,PAYLOAD,2023-10-04 11:12:38,15.08849368,0.0002168,53.2151,187.0189,83.9042,276.2197,0.00060581,9.369e-05,0.0,0 STARLINK-4090,1 53165U 22083AK  23277.46711370  .00009369  00000-0  60581-3 0  9995,2 53165  53.2151 187.0189 0002168  83.9042 276.2197 15.08849368 67421,6917.852,95.437,541.217,538.217,0.0
53165.0,STARLINK-4090,PAYLOAD,2023-10-05 01:31:06,15.08867329,0.000164,53.2148,184.3423,84.2889,275.829,0.00087051,0.00013604,0.0,0 STARLINK-4090,1 53165U 22083AK  23278.06326411  .00013604  00000-0  87051-3 0  9998,2 53165  53.2148 184.3423 0001640  84.2889 275.8290 15.08867329 68141,6917.797,95.436,540.796,538.527,0.0
53165.0,STARLINK-4090,PAYLOAD,2023-10-05 11:03:24,15.08855106,0.0001462,53.2154,182.5579,95.7657,264.3502,0.00037359,5.665e-05,0.0,0 STARLINK-4090,1 53165U 22083AK  23278.46070234  .00005665  00000-0  37359-3 0  9995,2 53165  53.2154 182.5579 0001462  95.7657 264.3502 15.08855106 67577,6917.834,95.437,540.711,538.688,0.0
53165.0,STARLINK-4090,PAYLOAD,2023-10-05 22:11:06,15.08838984,0.0001228,53.2154,180.4747,104.0616,256.0512,-0.00012948,-2.348e-05,0.0,0 STARLINK-4090,1 53165U 22083AK  23278.92438313 -.00002348  00000-0 -12948-3 0  9996,2 53165  53.2154 180.4747 0001228 104.0616 256.0512 15.08838984 67642,6917.883,95.438,540.598,538.899,0.0
53165.0,STARLINK-4090,PAYLOAD,2023-10-06 02:57:16,15.08851794,0.0001357,53.2143,179.5825,106.5709,253.5433,0.00074064,0.00011523,0.0,0 STARLINK-4090,1 53165U 22083AK  23279.12310225  .00011523  00000-0  74064-3 0  9990,2 53165  53.2143 179.5825 0001357 106.5709 253.5433 15.08851794 68301,6917.844,95.437,540.648,538.771,0.0
53165.0,STARLINK-4090,PAYLOAD,2023-10-06 10:54:12,15.08825444,0.0001889,53.2157,178.0979,83.061,277.0597,0.00063953,9.901e-05,0.0,0 STARLINK-4090,1 53165U 22083AK  23279.45431425  .00009901  00000-0  63953-3 0  9994,2 53165  53.2157 178.0979 0001889  83.0610 277.0597 15.08825444 67720,6917.925,95.438,541.097,538.483,0.0
53165.0,STARLINK-4090,PAYLOAD,2023-10-06 22:01:54,15.08834174,0.0001634,53.2158,176.014,97.2367,262.881,0.00077672,0.00012093,0.0,0 STARLINK-4090,1 53165U 22083AK  23279.91799727  .00012093  00000-0  77672-3 0  9996,2 53165  53.2158 176.0140 0001634  97.2367 262.8810 15.08834174 67790,6917.898,95.438,540.894,538.633,0.0
53165.0,STARLINK-4090,PAYLOAD,2023-10-07 10:45:00,15.08833232,0.0001361,53.2158,173.6344,102.6511,257.4633,0.00069823,0.0001084,0.0,0 STARLINK-4090,1 53165U 22083AK  23280.44792089  .00010840  00000-0  69823-3 0  9997,2 53165  53.2158 173.6344 0001361 102.6511 257.4633 15.08833232 67874,6917.901,95.438,540.708,538.825,0.0
53165.0,STARLINK-4090,PAYLOAD,2023-10-07 17:06:32,15.08840347,0.0001313,53.217,172.4446,104.2615,255.8523,0.00072707,0.00011302,0.0,0 STARLINK-4090,1 53165U 22083AK  23280.71288079  .00011302  00000-0  72707-3 0  9995,2 53165  53.2170 172.4446 0001313 104.2615 255.8523 15.08840347 68548,6917.879,95.438,540.653,538.836,0.0
53165.0,STARLINK-4090,PAYLOAD,2023-10-07 21:52:42,15.08849349,0.0001279,53.2158,171.554,98.83,261.2837,0.00086879,0.00013569,0.0,0 STARLINK-4090,1 53165U 22083AK  23280.91159924  .00013569  00000-0  86879-3 0  9995,2 53165  53.2158 171.5540 0001279  98.8300 261.2837 15.08849349 67942,6917.852,95.437,540.602,538.832,0.0
53165.0,STARLINK-4090,PAYLOAD,2023-10-08 02:38:51,15.08858386,0.0001279,53.215,170.6623,91.0678,269.0461,0.0010356,0.0001624,0.0,0 STARLINK-4090,1 53165U 22083AK  23281.11031701  .00016240  00000-0  10356-2 0  9995,2 53165  53.2150 170.6623 0001279  91.0678 269.0461 15.08858386 68603,6917.824,95.436,540.574,538.804,0.0
53165.0,STARLINK-4090,PAYLOAD,2023-10-08 20:08:05,15.08853154,0.0001322,53.2149,167.391,94.8815,265.2328,0.00051314,7.891e-05,0.0,0 STARLINK-4090,1 53165U 22083AK  23281.83895588  .00007891  00000-0  51314-3 0  9997,2 53165  53.2149 167.3910 0001322  94.8815 265.2328 15.08853154 68086,6917.84,95.437,540.62,538.791,0.0
53165.0,STARLINK-4090,PAYLOAD,2023-10-09 02:29:38,15.08863552,0.0001329,53.2152,166.2015,89.7791,270.3353,0.00087652,0.00013698,0.0,0 STARLINK-4090,1 53165U 22083AK  23282.10391254  .00013698  00000-0  87652-3 0  9995,2 53165  53.2152 166.2015 0001329  89.7791 270.3353 15.08863552 68759,6917.808,95.436,540.593,538.754,0.0
53165.0,STARLINK-4090,PAYLOAD,2023-10-09 08:51:10,15.08850895,0.0001344,53.2154,165.01,82.9961,277.1184,0.00047371,7.261e-05,0.0,0 STARLINK-4090,1 53165U 22083AK  23282.36887258  .00007261  00000-0  47371-3 0  9990,2 53165  53.2154 165.0100 0001344  82.9961 277.1184 15.08850895 68791,6917.847,95.437,540.642,538.782,0.0
53165.0,STARLINK-4090,PAYLOAD,2023-10-09 21:34:16,15.08839173,0.0001598,53.2166,162.6365,101.2731,258.844,0.00011492,1.541e-05,0.0,0 STARLINK-4090,1 53165U 22083AK  23282.89879752  .00001541  00000-0  11492-3 0  9998,2 53165  53.2166 162.6365 0001598 101.2731 258.8440 15.08839173 68248,6917.883,95.438,540.853,538.642,0.0
53165.0,STARLINK-4090,PAYLOAD,2023-10-10 02:20:25,15.08849148,0.0001307,53.2157,161.7404,83.1401,276.974,0.0005634,8.692e-05,0.0,0 STARLINK-4090,1 53165U 22083AK  23283.09751516  .00008692  00000-0  56340-3 0  9993,2 53165  53.2157 161.7404 0001307  83.1401 276.9740 15.08849148 68902,6917.852,95.437,540.622,538.813,0.0
53165.0,STARLINK-4090,PAYLOAD,2023-10-10 08:41:58,15.08841169,0.0001453,53.2156,160.5489,70.6818,289.4331,0.00029571,4.422e-05,0.0,0 STARLINK-4090,1 53165U 22083AK  23283.36247822  .00004422  00000-0  29571-3 0  9996,2 53165  53.2156 160.5489 0001453  70.6818 289.4331 15.08841169 68940,6917.877,95.437,540.747,538.737,0.0
53165.0,STARLINK-4090,PAYLOAD,2023-10-10 21:25:03,15.08845411,0.0001433,53.2152,158.1731,89.1495,270.9661,0.00033661,5.074e-05,0.0,0 STARLINK-4090,1 53165U 22083AK  23283.89239723  .00005074  00000-0  33661-3 0  9994,2 53165  53.2152 158.1731 0001433  89.1495 270.9661 15.08845411 68397,6917.864,95.437,540.72,538.738,0.0
53165.0,STARLINK-4090,PAYLOAD,2023-10-11 08:32:45,15.08840308,0.0001798,53.2148,156.0918,89.0612,271.0586,3.5969e-05,2.84e-06,0.0,0 STARLINK-4090,1 53165U 22083AK  23284.35607797  .00000284  00000-0  35969-4 0  9998,2 53165  53.2148 156.0918 0001798  89.0612 271.0586 15.08840308 68466,6917.879,95.438,540.988,538.501,0.0
53165.0,STARLINK-4090,PAYLOAD,2023-10-12 08:23:32,15.08840343,0.0001457,53.2147,151.6297,99.1899,260.9258,0.00018943,2.728e-05,0.0,0 STARLINK-4090,1 53165U 22083AK  23285.34967862  .00002728  00000-0  18943-3 0  9997,2 53165  53.2147 151.6297 0001457  99.1899 260.9258 15.08840343 68616,6917.879,95.438,540.752,538.736,0.0
53165.0,STARLINK-4090,PAYLOAD,2023-10-12 19:31:14,15.08843853,0.0001339,53.2158,149.5477,91.9103,268.2042,0.00021534,3.141e-05,0.0,0 STARLINK-4090,1 53165U 22083AK  23285.81335839  .00003141  00000-0  21534-3 0  9992,2 53165  53.2158 149.5477 0001339  91.9103 268.2042 15.08843853 69310,6917.869,95.437,540.66,538.807,0.0
53165.0,STARLINK-4090,PAYLOAD,2023-10-12 22:42:00,15.08852757,0.0001361,53.2145,148.9549,96.198,263.9167,0.00041608,6.342e-05,0.0,0 STARLINK-4090,1 53165U 22083AK  23285.94583583  .00006342  00000-0  41608-3 0  9997,2 53165  53.2145 148.9549 0001361  96.1980 263.9167 15.08852757 68709,6917.841,95.437,540.648,538.765,0.0
53165.0,STARLINK-4090,PAYLOAD,2023-10-13 08:14:19,15.08842701,0.0001404,53.2158,147.1692,95.3113,264.8039,0.00018172,2.606e-05,0.0,0 STARLINK-4090,1 53165U 22083AK  23286.34327867  .00002606  00000-0  18172-3 0  9992,2 53165  53.2158 147.1692 0001404  95.3113 264.8039 15.08842701 68762,6917.872,95.437,540.708,538.766,0.0
